[{"OBJECT_NAME":"STARLINK-31704","OBJECT_ID":"2024-076Y","EPOCH":"2026-03-09T22:00:01.999584","MEAN_MOTION":15.30892355,"ECCENTRICITY":0.00079744,"INCLINATION":42.9978,"RA_OF_ASC_NODE":323.2923,"ARG_OF_PERICENTER":240.5046,"MEAN_ANOMALY":200.4144,"EPHEMERIS_TYPE":0,"CLASSIFICATION_TYPE":"U","NORAD_CAT_ID":59586,"ELEMENT_SET_NO":999,"REV_AT_EPOCH":581,"BSTAR":0.0024766131,"MEAN_MOTION_DOT":0.00076042,"MEAN_MOTION_DDOT":0},{"OBJECT_NAME":"EXPLORER 11","OBJECT_ID":"1961-013A","EPOCH":"2026-03-09T10:05:52.450080","MEAN_MOTION":14.21739623,"ECCENTRICITY":0.04946829,"INCLINATION":28.7774,"RA_OF_ASC_NODE":171.5314,"ARG_OF_PERICENTER":276.7085,"MEAN_ANOMALY":77.745,"EPHEMERIS_TYPE":0,"CLASSIFICATION_TYPE":"U","NORAD_CAT_ID":107,"ELEMENT_SET_NO":999,"REV_AT_EPOCH":26228,"BSTAR":0.00050011847,"MEAN_MOTION_DOT":4.224e-5,"MEAN_MOTION_DDOT":0}]
